NOAA 15                 
1 25338U 98030A   22214.51421123  .00000101  00000+0  60550-4 0  9992
2 25338  98.6417 243.4420 0010851 157.6027 202.5629 14.26156906259833
NOAA 18                 
1 28654U 05018A   22214.45376984  .00000094  00000+0  74830-4 0  9994
2 28654  98.9471 284.8493 0014055 197.3810 162.6882 14.12759816886567
NOAA 19                 
1 33591U 09005A   22214.53112386  .00000107  00000+0  82865-4 0  9995
2 33591  99.1452 249.6295 0014785  61.2301 299.0353 14.12594364694951
METOP-B                 
1 38771U 12049A   22214.46288942  .00000023  00000+0  30636-4 0  9992
2 38771  98.6929 273.5284 0000460  82.4144  48.2198 14.21499037512263
SARAL                   
1 39086U 13009A   22213.87527072  .00000008  00000+0  19182-4 0  9999
2 39086  98.5484  38.8393 0002157 111.7012 248.4401 14.32054634492985
METOP-C                 
1 43689U 18087A   22214.47433346  .00000024  00000+0  31001-4 0  9993
2 43689  98.6811 273.7034 0001540 261.0236  99.0767 14.21499082193844
ANGELS                  
1 44876U 19092D   22214.07997624  .00001066  00000+0  55540-4 0  9990
2 44876  97.4754  36.9011 0011539 191.7521 168.3445 15.18105250145168
